{
  "type": "FeatureCollection",
  "name": "Osijek municipal parking segments - geometry pending",
  "features": [
    {
      "type": "Feature",
      "id": "OS-Z0-001",
      "properties": {
        "segment_id": "OS-Z0-001",
        "name": "Županijska ulica",
        "segment_from": "Ulica Hrvatske Republike",
        "segment_to": "Trg pape Ivana Pavla II.",
        "location_type": "street_segment",
        "zone": "0",
        "municipal_status": "PAID",
        "hourly_price_eur": 1.5,
        "max_hours_per_day": 3,
        "active_from": "2026-09-21",
        "currently_active": "YES",
        "weekday_hours": "07:00-21:00",
        "saturday_hours": "07:00-15:00",
        "sunday_holidays": "FREE",
        "grace_minutes": 15,
        "sms_number": "708310",
        "special_rule": "",
        "geometry_status": "NEEDS_GEOCODING",
        "osm_id": "",
        "source_url": "https://web.gpp-osijek.com/od-21-rujna-pocinje-naplata-parkiranja-u-sredistu-osijeka/",
        "source_type": "OFFICIAL",
        "verified": "YES",
        "notes": ""
      },
      "geometry": null
    },
    {
      "type": "Feature",
      "id": "OS-Z0-002",
      "properties": {
        "segment_id": "OS-Z0-002",
        "name": "Ulica Hrvatske Republike",
        "segment_from": "Županijska ulica",
        "segment_to": "ulaz u Vijenac Jakova Gotovca",
        "location_type": "street_segment",
        "zone": "0",
        "municipal_status": "PAID",
        "hourly_price_eur": 1.5,
        "max_hours_per_day": 3,
        "active_from": "2026-09-21",
        "currently_active": "YES",
        "weekday_hours": "07:00-21:00",
        "saturday_hours": "07:00-15:00",
        "sunday_holidays": "FREE",
        "grace_minutes": 15,
        "sms_number": "708310",
        "special_rule": "",
        "geometry_status": "NEEDS_GEOCODING",
        "osm_id": "",
        "source_url": "https://web.gpp-osijek.com/od-21-rujna-pocinje-naplata-parkiranja-u-sredistu-osijeka/",
        "source_type": "OFFICIAL",
        "verified": "YES",
        "notes": ""
      },
      "geometry": null
    },
    {
      "type": "Feature",
      "id": "OS-Z0-003",
      "properties": {
        "segment_id": "OS-Z0-003",
        "name": "Trg Lava Mirskog",
        "segment_from": "",
        "segment_to": "",
        "location_type": "whole_location",
        "zone": "0",
        "municipal_status": "PAID",
        "hourly_price_eur": 1.5,
        "max_hours_per_day": 3,
        "active_from": "2026-09-21",
        "currently_active": "YES",
        "weekday_hours": "07:00-21:00",
        "saturday_hours": "07:00-15:00",
        "sunday_holidays": "FREE",
        "grace_minutes": 15,
        "sms_number": "708310",
        "special_rule": "",
        "geometry_status": "NEEDS_GEOCODING",
        "osm_id": "",
        "source_url": "https://web.gpp-osijek.com/od-21-rujna-pocinje-naplata-parkiranja-u-sredistu-osijeka/",
        "source_type": "OFFICIAL",
        "verified": "YES",
        "notes": ""
      },
      "geometry": null
    },
    {
      "type": "Feature",
      "id": "OS-Z0-004",
      "properties": {
        "segment_id": "OS-Z0-004",
        "name": "Šetalište Petra Preradovića",
        "segment_from": "",
        "segment_to": "",
        "location_type": "whole_location",
        "zone": "0",
        "municipal_status": "PAID",
        "hourly_price_eur": 1.5,
        "max_hours_per_day": 3,
        "active_from": "2026-09-21",
        "currently_active": "YES",
        "weekday_hours": "07:00-21:00",
        "saturday_hours": "07:00-15:00",
        "sunday_holidays": "FREE",
        "grace_minutes": 15,
        "sms_number": "708310",
        "special_rule": "",
        "geometry_status": "NEEDS_GEOCODING",
        "osm_id": "",
        "source_url": "https://web.gpp-osijek.com/od-21-rujna-pocinje-naplata-parkiranja-u-sredistu-osijeka/",
        "source_type": "OFFICIAL",
        "verified": "YES",
        "notes": ""
      },
      "geometry": null
    },
    {
      "type": "Feature",
      "id": "OS-Z0-005",
      "properties": {
        "segment_id": "OS-Z0-005",
        "name": "Šetalište Vjekoslava Hengla",
        "segment_from": "",
        "segment_to": "",
        "location_type": "whole_location",
        "zone": "0",
        "municipal_status": "PAID",
        "hourly_price_eur": 1.5,
        "max_hours_per_day": 3,
        "active_from": "2026-09-21",
        "currently_active": "YES",
        "weekday_hours": "07:00-21:00",
        "saturday_hours": "07:00-15:00",
        "sunday_holidays": "FREE",
        "grace_minutes": 15,
        "sms_number": "708310",
        "special_rule": "",
        "geometry_status": "NEEDS_GEOCODING",
        "osm_id": "",
        "source_url": "https://web.gpp-osijek.com/od-21-rujna-pocinje-naplata-parkiranja-u-sredistu-osijeka/",
        "source_type": "OFFICIAL",
        "verified": "YES",
        "notes": ""
      },
      "geometry": null
    },
    {
      "type": "Feature",
      "id": "OS-Z0-006",
      "properties": {
        "segment_id": "OS-Z0-006",
        "name": "Šetalište kardinala Franje Šepera",
        "segment_from": "8E",
        "segment_to": "8F",
        "location_type": "address_range",
        "zone": "0",
        "municipal_status": "PAID",
        "hourly_price_eur": 1.5,
        "max_hours_per_day": 3,
        "active_from": "2026-09-21",
        "currently_active": "YES",
        "weekday_hours": "07:00-21:00",
        "saturday_hours": "07:00-15:00",
        "sunday_holidays": "FREE",
        "grace_minutes": 15,
        "sms_number": "708310",
        "special_rule": "",
        "geometry_status": "NEEDS_GEOCODING",
        "osm_id": "",
        "source_url": "https://web.gpp-osijek.com/od-21-rujna-pocinje-naplata-parkiranja-u-sredistu-osijeka/",
        "source_type": "OFFICIAL",
        "verified": "YES",
        "notes": "Official wording specifies 8E and 8F."
      },
      "geometry": null
    },
    {
      "type": "Feature",
      "id": "OS-Z0-007",
      "properties": {
        "segment_id": "OS-Z0-007",
        "name": "Ulica Josipa Jurja Strossmayera",
        "segment_from": "Trg Ante Starčevića",
        "segment_to": "Ulica Gornjodravska obala",
        "location_type": "street_segment",
        "zone": "0",
        "municipal_status": "PAID",
        "hourly_price_eur": 1.5,
        "max_hours_per_day": 3,
        "active_from": "2026-09-21",
        "currently_active": "YES",
        "weekday_hours": "07:00-21:00",
        "saturday_hours": "07:00-15:00",
        "sunday_holidays": "FREE",
        "grace_minutes": 15,
        "sms_number": "708310",
        "special_rule": "",
        "geometry_status": "NEEDS_GEOCODING",
        "osm_id": "",
        "source_url": "https://web.gpp-osijek.com/od-21-rujna-pocinje-naplata-parkiranja-u-sredistu-osijeka/",
        "source_type": "OFFICIAL",
        "verified": "YES",
        "notes": ""
      },
      "geometry": null
    },
    {
      "type": "Feature",
      "id": "OS-Z0-008",
      "properties": {
        "segment_id": "OS-Z0-008",
        "name": "Ulica Lorenza Jägera",
        "segment_from": "Ulica Ivana Adamovića",
        "segment_to": "Kapucinska ulica",
        "location_type": "street_segment",
        "zone": "0",
        "municipal_status": "PAID",
        "hourly_price_eur": 1.5,
        "max_hours_per_day": 3,
        "active_from": "2026-09-21",
        "currently_active": "YES",
        "weekday_hours": "07:00-21:00",
        "saturday_hours": "07:00-15:00",
        "sunday_holidays": "FREE",
        "grace_minutes": 15,
        "sms_number": "708310",
        "special_rule": "",
        "geometry_status": "NEEDS_GEOCODING",
        "osm_id": "",
        "source_url": "https://web.gpp-osijek.com/od-21-rujna-pocinje-naplata-parkiranja-u-sredistu-osijeka/",
        "source_type": "OFFICIAL",
        "verified": "YES",
        "notes": ""
      },
      "geometry": null
    },
    {
      "type": "Feature",
      "id": "OS-Z0-009",
      "properties": {
        "segment_id": "OS-Z0-009",
        "name": "Kapucinska ulica",
        "segment_from": "",
        "segment_to": "",
        "location_type": "whole_location",
        "zone": "0",
        "municipal_status": "PAID",
        "hourly_price_eur": 1.5,
        "max_hours_per_day": 3,
        "active_from": "2026-09-21",
        "currently_active": "YES",
        "weekday_hours": "07:00-21:00",
        "saturday_hours": "07:00-15:00",
        "sunday_holidays": "FREE",
        "grace_minutes": 15,
        "sms_number": "708310",
        "special_rule": "",
        "geometry_status": "NEEDS_GEOCODING",
        "osm_id": "",
        "source_url": "https://web.gpp-osijek.com/od-21-rujna-pocinje-naplata-parkiranja-u-sredistu-osijeka/",
        "source_type": "OFFICIAL",
        "verified": "YES",
        "notes": ""
      },
      "geometry": null
    },
    {
      "type": "Feature",
      "id": "OS-Z0-010",
      "properties": {
        "segment_id": "OS-Z0-010",
        "name": "Trg Lavoslava Ružičke",
        "segment_from": "",
        "segment_to": "",
        "location_type": "parking_area",
        "zone": "0",
        "municipal_status": "PAID",
        "hourly_price_eur": 1.5,
        "max_hours_per_day": 3,
        "active_from": "2026-09-21",
        "currently_active": "YES",
        "weekday_hours": "07:00-21:00",
        "saturday_hours": "07:00-15:00",
        "sunday_holidays": "FREE",
        "grace_minutes": 15,
        "sms_number": "708310",
        "special_rule": "",
        "geometry_status": "NEEDS_GEOCODING",
        "osm_id": "",
        "source_url": "https://web.gpp-osijek.com/od-21-rujna-pocinje-naplata-parkiranja-u-sredistu-osijeka/",
        "source_type": "OFFICIAL",
        "verified": "YES",
        "notes": "Glavni željeznički kolodvor"
      },
      "geometry": null
    },
    {
      "type": "Feature",
      "id": "OS-Z0-011",
      "properties": {
        "segment_id": "OS-Z0-011",
        "name": "Trg Ljudevita Gaja – sjever",
        "segment_from": "Ulica Stjepana Radića",
        "segment_to": "Ulica Dragutina Neumana",
        "location_type": "parking_area",
        "zone": "0",
        "municipal_status": "PAID",
        "hourly_price_eur": 1.5,
        "max_hours_per_day": 3,
        "active_from": "2026-09-21",
        "currently_active": "YES",
        "weekday_hours": "07:00-21:00",
        "saturday_hours": "07:00-15:00",
        "sunday_holidays": "FREE",
        "grace_minutes": 15,
        "sms_number": "708310",
        "special_rule": "First hour free 07:00-13:00; total Zone 0 daily max still applies.",
        "geometry_status": "NEEDS_GEOCODING",
        "osm_id": "",
        "source_url": "https://trznicaos.hr/vijesti/obavijest-o-pocetku-naplate-usluge-parkiranja-na-podrucju-trga-ljudevita-gaja-u-osijeku",
        "source_type": "OFFICIAL",
        "verified": "YES",
        "notes": "Market special rule applies."
      },
      "geometry": null
    },
    {
      "type": "Feature",
      "id": "OS-Z0-012",
      "properties": {
        "segment_id": "OS-Z0-012",
        "name": "Trg Ljudevita Gaja – istok i Sudski prolaz",
        "segment_from": "",
        "segment_to": "",
        "location_type": "parking_area",
        "zone": "0",
        "municipal_status": "PAID",
        "hourly_price_eur": 1.5,
        "max_hours_per_day": 3,
        "active_from": "2026-09-21",
        "currently_active": "YES",
        "weekday_hours": "07:00-21:00",
        "saturday_hours": "07:00-15:00",
        "sunday_holidays": "FREE",
        "grace_minutes": 15,
        "sms_number": "708310",
        "special_rule": "First hour free 07:00-13:00; total Zone 0 daily max still applies.",
        "geometry_status": "NEEDS_GEOCODING",
        "osm_id": "",
        "source_url": "https://trznicaos.hr/vijesti/obavijest-o-pocetku-naplate-usluge-parkiranja-na-podrucju-trga-ljudevita-gaja-u-osijeku",
        "source_type": "OFFICIAL",
        "verified": "YES",
        "notes": "Market special rule applies."
      },
      "geometry": null
    },
    {
      "type": "Feature",
      "id": "OS-Z1-001",
      "properties": {
        "segment_id": "OS-Z1-001",
        "name": "Ulica Pavla Pejačevića",
        "segment_from": "Ulica Adolfa Waldingera",
        "segment_to": "Trg pape Ivana Pavla II.",
        "location_type": "street_segment",
        "zone": "1",
        "municipal_status": "PAID",
        "hourly_price_eur": 1.0,
        "max_hours_per_day": "",
        "active_from": "2026-09-21",
        "currently_active": "YES",
        "weekday_hours": "07:00-21:00",
        "saturday_hours": "07:00-15:00",
        "sunday_holidays": "FREE",
        "grace_minutes": 15,
        "sms_number": "708311",
        "special_rule": "",
        "geometry_status": "NEEDS_GEOCODING",
        "osm_id": "",
        "source_url": "https://web.gpp-osijek.com/od-21-rujna-pocinje-naplata-parkiranja-u-sredistu-osijeka/",
        "source_type": "OFFICIAL",
        "verified": "YES",
        "notes": ""
      },
      "geometry": null
    },
    {
      "type": "Feature",
      "id": "OS-Z1-002",
      "properties": {
        "segment_id": "OS-Z1-002",
        "name": "Parkiralište „Zeko“ – Ulica Pavla Pejačevića",
        "segment_from": "",
        "segment_to": "",
        "location_type": "parking_area",
        "zone": "1",
        "municipal_status": "PAID",
        "hourly_price_eur": 1.0,
        "max_hours_per_day": "",
        "active_from": "2026-09-21",
        "currently_active": "YES",
        "weekday_hours": "07:00-21:00",
        "saturday_hours": "07:00-15:00",
        "sunday_holidays": "FREE",
        "grace_minutes": 15,
        "sms_number": "708311",
        "special_rule": "",
        "geometry_status": "NEEDS_GEOCODING",
        "osm_id": "",
        "source_url": "https://web.gpp-osijek.com/od-21-rujna-pocinje-naplata-parkiranja-u-sredistu-osijeka/",
        "source_type": "OFFICIAL",
        "verified": "YES",
        "notes": ""
      },
      "geometry": null
    },
    {
      "type": "Feature",
      "id": "OS-Z1-003",
      "properties": {
        "segment_id": "OS-Z1-003",
        "name": "Ulica Lorenza Jägera",
        "segment_from": "Ulica Hrvatske Republike",
        "segment_to": "Ulica Ivana Adamovića",
        "location_type": "street_segment",
        "zone": "1",
        "municipal_status": "PAID",
        "hourly_price_eur": 1.0,
        "max_hours_per_day": "",
        "active_from": "2026-09-21",
        "currently_active": "YES",
        "weekday_hours": "07:00-21:00",
        "saturday_hours": "07:00-15:00",
        "sunday_holidays": "FREE",
        "grace_minutes": 15,
        "sms_number": "708311",
        "special_rule": "",
        "geometry_status": "NEEDS_GEOCODING",
        "osm_id": "",
        "source_url": "https://web.gpp-osijek.com/od-21-rujna-pocinje-naplata-parkiranja-u-sredistu-osijeka/",
        "source_type": "OFFICIAL",
        "verified": "YES",
        "notes": ""
      },
      "geometry": null
    },
    {
      "type": "Feature",
      "id": "OS-Z1-004",
      "properties": {
        "segment_id": "OS-Z1-004",
        "name": "Ulica Hrvatske Republike",
        "segment_from": "Vijenac Jakova Gotovca",
        "segment_to": "Ulica Stjepana Radića",
        "location_type": "street_segment",
        "zone": "1",
        "municipal_status": "PAID",
        "hourly_price_eur": 1.0,
        "max_hours_per_day": "",
        "active_from": "2026-09-21",
        "currently_active": "YES",
        "weekday_hours": "07:00-21:00",
        "saturday_hours": "07:00-15:00",
        "sunday_holidays": "FREE",
        "grace_minutes": 15,
        "sms_number": "708311",
        "special_rule": "",
        "geometry_status": "NEEDS_GEOCODING",
        "osm_id": "",
        "source_url": "https://web.gpp-osijek.com/od-21-rujna-pocinje-naplata-parkiranja-u-sredistu-osijeka/",
        "source_type": "OFFICIAL",
        "verified": "YES",
        "notes": ""
      },
      "geometry": null
    },
    {
      "type": "Feature",
      "id": "OS-Z1-005",
      "properties": {
        "segment_id": "OS-Z1-005",
        "name": "Školska ulica",
        "segment_from": "",
        "segment_to": "",
        "location_type": "whole_location",
        "zone": "1",
        "municipal_status": "PAID",
        "hourly_price_eur": 1.0,
        "max_hours_per_day": "",
        "active_from": "2026-09-21",
        "currently_active": "YES",
        "weekday_hours": "07:00-21:00",
        "saturday_hours": "07:00-15:00",
        "sunday_holidays": "FREE",
        "grace_minutes": 15,
        "sms_number": "708311",
        "special_rule": "",
        "geometry_status": "NEEDS_GEOCODING",
        "osm_id": "",
        "source_url": "https://web.gpp-osijek.com/od-21-rujna-pocinje-naplata-parkiranja-u-sredistu-osijeka/",
        "source_type": "OFFICIAL",
        "verified": "YES",
        "notes": ""
      },
      "geometry": null
    },
    {
      "type": "Feature",
      "id": "OS-Z1-006",
      "properties": {
        "segment_id": "OS-Z1-006",
        "name": "Ulica Ivana Adamovića",
        "segment_from": "",
        "segment_to": "",
        "location_type": "whole_location",
        "zone": "1",
        "municipal_status": "PAID",
        "hourly_price_eur": 1.0,
        "max_hours_per_day": "",
        "active_from": "2026-09-21",
        "currently_active": "YES",
        "weekday_hours": "07:00-21:00",
        "saturday_hours": "07:00-15:00",
        "sunday_holidays": "FREE",
        "grace_minutes": 15,
        "sms_number": "708311",
        "special_rule": "",
        "geometry_status": "NEEDS_GEOCODING",
        "osm_id": "",
        "source_url": "https://web.gpp-osijek.com/od-21-rujna-pocinje-naplata-parkiranja-u-sredistu-osijeka/",
        "source_type": "OFFICIAL",
        "verified": "YES",
        "notes": ""
      },
      "geometry": null
    },
    {
      "type": "Feature",
      "id": "OS-Z1-007",
      "properties": {
        "segment_id": "OS-Z1-007",
        "name": "Vijenac Paje Kolarića",
        "segment_from": "",
        "segment_to": "",
        "location_type": "whole_location",
        "zone": "1",
        "municipal_status": "PAID",
        "hourly_price_eur": 1.0,
        "max_hours_per_day": "",
        "active_from": "2026-09-21",
        "currently_active": "YES",
        "weekday_hours": "07:00-21:00",
        "saturday_hours": "07:00-15:00",
        "sunday_holidays": "FREE",
        "grace_minutes": 15,
        "sms_number": "708311",
        "special_rule": "",
        "geometry_status": "NEEDS_GEOCODING",
        "osm_id": "",
        "source_url": "https://web.gpp-osijek.com/od-21-rujna-pocinje-naplata-parkiranja-u-sredistu-osijeka/",
        "source_type": "OFFICIAL",
        "verified": "YES",
        "notes": ""
      },
      "geometry": null
    },
    {
      "type": "Feature",
      "id": "OS-Z1-008",
      "properties": {
        "segment_id": "OS-Z1-008",
        "name": "Vijenac Jakova Gotovca",
        "segment_from": "",
        "segment_to": "",
        "location_type": "whole_location",
        "zone": "1",
        "municipal_status": "PAID",
        "hourly_price_eur": 1.0,
        "max_hours_per_day": "",
        "active_from": "2026-09-21",
        "currently_active": "YES",
        "weekday_hours": "07:00-21:00",
        "saturday_hours": "07:00-15:00",
        "sunday_holidays": "FREE",
        "grace_minutes": 15,
        "sms_number": "708311",
        "special_rule": "",
        "geometry_status": "NEEDS_GEOCODING",
        "osm_id": "",
        "source_url": "https://web.gpp-osijek.com/od-21-rujna-pocinje-naplata-parkiranja-u-sredistu-osijeka/",
        "source_type": "OFFICIAL",
        "verified": "YES",
        "notes": ""
      },
      "geometry": null
    }
  ]
}